{
 "generated_at": "2026-06-18T09:14:20Z",
 "sources": [
  {
   "name": "CelesTrak",
   "url": "https://celestrak.org/NORAD/elements/",
   "license": "frei verfügbar; Attribution. Ursprünglich USSPACECOM/Space-Track."
  },
  {
   "name": "GCAT (J. McDowell, planet4589.org)",
   "url": "https://planet4589.org/space/gcat/",
   "license": "CC-BY 4.0"
  }
 ],
 "satellites": [
  {
   "norad": 40732,
   "name": "METEOSAT-11 (MSG-4)",
   "intl": "2015-034A",
   "group": "weather",
   "gcat": {
    "class": "C",
    "category": "MET",
    "owner": "EUMET",
    "state": "I-EUM"
   },
   "omm": {
    "OBJECT_NAME": "METEOSAT-11 (MSG-4)",
    "OBJECT_ID": "2015-034A",
    "EPOCH": "2026-06-17T06:10:15.269088",
    "MEAN_MOTION": 1.002804,
    "ECCENTRICITY": 0.00017414,
    "INCLINATION": 3.2014,
    "RA_OF_ASC_NODE": 71.1096,
    "ARG_OF_PERICENTER": 11.8883,
    "MEAN_ANOMALY": 284.752,
    "EPHEMERIS_TYPE": 0,
    "CLASSIFICATION_TYPE": "U",
    "NORAD_CAT_ID": 40732,
    "ELEMENT_SET_NO": 999,
    "REV_AT_EPOCH": 721,
    "BSTAR": 0,
    "MEAN_MOTION_DOT": 6e-7,
    "MEAN_MOTION_DDOT": 0
   }
  },
  {
   "norad": 54743,
   "name": "METEOSAT-12 (MTG-I1)",
   "intl": "2022-170C",
   "group": "weather",
   "gcat": {
    "class": "C",
    "category": "MET",
    "owner": "EUMET",
    "state": "I-EUM"
   },
   "omm": {
    "OBJECT_NAME": "METEOSAT-12 (MTG-I1)",
    "OBJECT_ID": "2022-170C",
    "EPOCH": "2026-06-17T21:31:15.079584",
    "MEAN_MOTION": 1.00272808,
    "ECCENTRICITY": 0.00031999,
    "INCLINATION": 0.7394,
    "RA_OF_ASC_NODE": 23.1416,
    "ARG_OF_PERICENTER": 71.1996,
    "MEAN_ANOMALY": 134.2072,
    "EPHEMERIS_TYPE": 0,
    "CLASSIFICATION_TYPE": "U",
    "NORAD_CAT_ID": 54743,
    "ELEMENT_SET_NO": 999,
    "REV_AT_EPOCH": 1298,
    "BSTAR": 0,
    "MEAN_MOTION_DOT": -1.4e-7,
    "MEAN_MOTION_DDOT": 0
   }
  },
  {
   "norad": 28912,
   "name": "METEOSAT-9 (MSG-2)",
   "intl": "2005-049B",
   "group": "weather",
   "gcat": {
    "class": "C",
    "category": "MET",
    "owner": "EUMET",
    "state": "I-EUM"
   },
   "omm": {
    "OBJECT_NAME": "METEOSAT-9 (MSG-2)",
    "OBJECT_ID": "2005-049B",
    "EPOCH": "2026-06-17T20:09:04.483008",
    "MEAN_MOTION": 1.00272435,
    "ECCENTRICITY": 0.00016603,
    "INCLINATION": 9.3634,
    "RA_OF_ASC_NODE": 54.1628,
    "ARG_OF_PERICENTER": 344.514,
    "MEAN_ANOMALY": 215.3198,
    "EPHEMERIS_TYPE": 0,
    "CLASSIFICATION_TYPE": "U",
    "NORAD_CAT_ID": 28912,
    "ELEMENT_SET_NO": 999,
    "REV_AT_EPOCH": 700,
    "BSTAR": 0,
    "MEAN_MOTION_DOT": 0.00000114,
    "MEAN_MOTION_DDOT": 0
   }
  },
  {
   "norad": 38771,
   "name": "METOP-B",
   "intl": "2012-049A",
   "group": "weather",
   "gcat": {
    "class": "C",
    "category": "MET",
    "owner": "EUMET",
    "state": "I-EUM"
   },
   "omm": {
    "OBJECT_NAME": "METOP-B",
    "OBJECT_ID": "2012-049A",
    "EPOCH": "2026-06-17T21:26:41.690976",
    "MEAN_MOTION": 14.21432898,
    "ECCENTRICITY": 0.0002195,
    "INCLINATION": 98.6504,
    "RA_OF_ASC_NODE": 220.3787,
    "ARG_OF_PERICENTER": 17.9345,
    "MEAN_ANOMALY": 342.191,
    "EPHEMERIS_TYPE": 0,
    "CLASSIFICATION_TYPE": "U",
    "NORAD_CAT_ID": 38771,
    "ELEMENT_SET_NO": 999,
    "REV_AT_EPOCH": 71336,
    "BSTAR": 0.000056227467,
    "MEAN_MOTION_DOT": 8e-7,
    "MEAN_MOTION_DDOT": 0
   }
  },
  {
   "norad": 43689,
   "name": "METOP-C",
   "intl": "2018-087A",
   "group": "weather",
   "gcat": {
    "class": "C",
    "category": "MET",
    "owner": "EUMET",
    "state": "I-EUM"
   },
   "omm": {
    "OBJECT_NAME": "METOP-C",
    "OBJECT_ID": "2018-087A",
    "EPOCH": "2026-06-17T21:54:16.924032",
    "MEAN_MOTION": 14.21512322,
    "ECCENTRICITY": 0.0001789,
    "INCLINATION": 98.6645,
    "RA_OF_ASC_NODE": 228.5031,
    "ARG_OF_PERICENTER": 128.5426,
    "MEAN_ANOMALY": 231.5912,
    "EPHEMERIS_TYPE": 0,
    "CLASSIFICATION_TYPE": "U",
    "NORAD_CAT_ID": 43689,
    "ELEMENT_SET_NO": 999,
    "REV_AT_EPOCH": 39493,
    "BSTAR": 0.000059578701,
    "MEAN_MOTION_DOT": 8.7e-7,
    "MEAN_MOTION_DDOT": 0
   }
  },
  {
   "norad": 65159,
   "name": "METOP-SGA1",
   "intl": "2025-172A",
   "group": "weather",
   "gcat": {
    "class": "C",
    "category": "MET",
    "owner": "EUMET",
    "state": "I-EUM"
   },
   "omm": {
    "OBJECT_NAME": "METOP-SGA1",
    "OBJECT_ID": "2025-172A",
    "EPOCH": "2026-06-16T03:40:47.624736",
    "MEAN_MOTION": 14.2150972,
    "ECCENTRICITY": 0.0000902,
    "INCLINATION": 98.6644,
    "RA_OF_ASC_NODE": 226.8998,
    "ARG_OF_PERICENTER": 93.8213,
    "MEAN_ANOMALY": 266.3067,
    "EPHEMERIS_TYPE": 0,
    "CLASSIFICATION_TYPE": "U",
    "NORAD_CAT_ID": 65159,
    "ELEMENT_SET_NO": 999,
    "REV_AT_EPOCH": 4364,
    "BSTAR": 0.000041999845,
    "MEAN_MOTION_DOT": 4.9e-7,
    "MEAN_MOTION_DDOT": 0
   }
  },
  {
   "norad": 64899,
   "name": "MICROCARB",
   "intl": "2025-156A",
   "group": "resource",
   "gcat": {
    "class": "C",
    "category": "SCI",
    "owner": "CNES",
    "state": "F"
   },
   "omm": {
    "OBJECT_NAME": "MICROCARB",
    "OBJECT_ID": "2025-156A",
    "EPOCH": "2026-06-17T19:54:16.310016",
    "MEAN_MOTION": 14.72326092,
    "ECCENTRICITY": 0.00149631,
    "INCLINATION": 97.9832,
    "RA_OF_ASC_NODE": 245.9552,
    "ARG_OF_PERICENTER": 269.9967,
    "MEAN_ANOMALY": 89.9526,
    "EPHEMERIS_TYPE": 0,
    "CLASSIFICATION_TYPE": "U",
    "NORAD_CAT_ID": 64899,
    "ELEMENT_SET_NO": 999,
    "REV_AT_EPOCH": 4806,
    "BSTAR": 0.00007121379,
    "MEAN_MOTION_DOT": 0.00000401,
    "MEAN_MOTION_DDOT": 0
   }
  },
  {
   "norad": 64723,
   "name": "MTG-S1",
   "intl": "2025-143A",
   "group": "weather",
   "gcat": {
    "class": "C",
    "category": "MET",
    "owner": "EUMET",
    "state": "I-EUM"
   },
   "omm": {
    "OBJECT_NAME": "MTG-S1",
    "OBJECT_ID": "2025-143A",
    "EPOCH": "2026-06-17T21:30:22.664160",
    "MEAN_MOTION": 1.0027052,
    "ECCENTRICITY": 0.00007884,
    "INCLINATION": 0.6023,
    "RA_OF_ASC_NODE": 339.1581,
    "ARG_OF_PERICENTER": 17.4636,
    "MEAN_ANOMALY": 228.6383,
    "EPHEMERIS_TYPE": 0,
    "CLASSIFICATION_TYPE": "U",
    "NORAD_CAT_ID": 64723,
    "ELEMENT_SET_NO": 999,
    "REV_AT_EPOCH": 342,
    "BSTAR": 0,
    "MEAN_MOTION_DOT": -3.7e-7,
    "MEAN_MOTION_DDOT": 0
   }
  },
  {
   "norad": 46277,
   "name": "NEMO-HD",
   "intl": "2020-061F",
   "group": "resource",
   "gcat": {
    "class": "A",
    "category": "IMG",
    "owner": "SPSI",
    "state": "SI"
   },
   "omm": {
    "OBJECT_NAME": "NEMO-HD",
    "OBJECT_ID": "2020-061F",
    "EPOCH": "2026-06-17T23:19:37.055424",
    "MEAN_MOTION": 15.44607803,
    "ECCENTRICITY": 0.00022336,
    "INCLINATION": 97.1916,
    "RA_OF_ASC_NODE": 230.917,
    "ARG_OF_PERICENTER": 80.0493,
    "MEAN_ANOMALY": 280.1008,
    "EPHEMERIS_TYPE": 0,
    "CLASSIFICATION_TYPE": "U",
    "NORAD_CAT_ID": 46277,
    "ELEMENT_SET_NO": 999,
    "REV_AT_EPOCH": 32210,
    "BSTAR": 0.00019904084,
    "MEAN_MOTION_DOT": 0.00009174,
    "MEAN_MOTION_DDOT": 0
   }
  },
  {
   "norad": 65053,
   "name": "NISAR",
   "intl": "2025-163A",
   "group": "sar",
   "gcat": {
    "class": "C",
    "category": "IMG-R",
    "owner": "ISRO/JPL",
    "state": "IN"
   },
   "omm": {
    "OBJECT_NAME": "NISAR",
    "OBJECT_ID": "2025-163A",
    "EPOCH": "2026-06-17T22:16:21.780768",
    "MEAN_MOTION": 14.42506587,
    "ECCENTRICITY": 0.00012124,
    "INCLINATION": 98.4054,
    "RA_OF_ASC_NODE": 356.582,
    "ARG_OF_PERICENTER": 90.1944,
    "MEAN_ANOMALY": 269.9385,
    "EPHEMERIS_TYPE": 0,
    "CLASSIFICATION_TYPE": "U",
    "NORAD_CAT_ID": 65053,
    "ELEMENT_SET_NO": 999,
    "REV_AT_EPOCH": 4649,
    "BSTAR": 0.000054618619,
    "MEAN_MOTION_DOT": 0.00000138,
    "MEAN_MOTION_DDOT": 0
   }
  }
 ]
}
