METEOSAT-9 (MSG-2)      
1 28912U 05049B   26168.83963522  .00000114  00000+0  00000+0 0  9995
2 28912   9.3634  54.1628 0001660 344.5140 215.3198  1.00272435  7009
METOP-B                 
1 38771U 12049A   26168.89353809  .00000080  00000+0  56227-4 0  9993
2 38771  98.6504 220.3787 0002195  17.9345 342.1910 14.21432898713367
METEOSAT-11 (MSG-4)     
1 40732U 15034A   26168.25712117  .00000060  00000+0  00000+0 0  9992
2 40732   3.2014  71.1096 0001741  11.8883 284.7520  1.00280400  7217
METOP-C                 
1 43689U 18087A   26168.91269588  .00000087  00000+0  59579-4 0  9998
2 43689  98.6645 228.5031 0001789 128.5426 231.5912 14.21512322394938
NEMO-HD                 
1 46277U 20061F   26168.97195666  .00009174  00000+0  19904-3 0  9993
2 46277  97.1916 230.9170 0002233  80.0493 280.1008 15.44607803322102
METEOSAT-12 (MTG-I1)    
1 54743U 22170C   26168.89670231 -.00000014  00000+0  00000+0 0  9998
2 54743   0.7394  23.1416 0003199  71.1996 134.2072  1.00272808 12987
MTG-S1                  
1 64723U 25143A   26168.89609565 -.00000037  00000+0  00000+0 0  9997
2 64723   0.6023 339.1581 0000788  17.4636 228.6383  1.00270520  3423
MICROCARB               
1 64899U 25156A   26168.82935544  .00000401  00000+0  71214-4 0  9991
2 64899  97.9832 245.9552 0014963 269.9967  89.9526 14.72326092 48062
NISAR                   
1 65053U 25163A   26168.92802987  .00000138  00000+0  54619-4 0  9994
2 65053  98.4054 356.5820 0001212  90.1944 269.9385 14.42506587 46490
METOP-SGA1              
1 65159U 25172A   26167.15332899  .00000049  00000+0  42000-4 0  9997
2 65159  98.6644 226.8998 0000902  93.8213 266.3067 14.21509720 43644
